[{"OBJECT_NAME":"STARLINK-31768","OBJECT_ID":"2024-080R","EPOCH":"2026-03-09T07:28:13.060128","MEAN_MOTION":15.27578545,"ECCENTRICITY":0.00011154,"INCLINATION":43.005,"RA_OF_ASC_NODE":40.1412,"ARG_OF_PERICENTER":276.1558,"MEAN_ANOMALY":83.9167,"EPHEMERIS_TYPE":0,"CLASSIFICATION_TYPE":"U","NORAD_CAT_ID":59616,"ELEMENT_SET_NO":999,"REV_AT_EPOCH":10447,"BSTAR":-4.19702e-7,"MEAN_MOTION_DOT":-2.74e-6,"MEAN_MOTION_DDOT":0},{"OBJECT_NAME":"OKEAN-1","OBJECT_ID":"1988-056A","EPOCH":"2026-03-09T21:19:04.260000","MEAN_MOTION":15.31672069,"ECCENTRICITY":0.00129431,"INCLINATION":82.4671,"RA_OF_ASC_NODE":262.7586,"ARG_OF_PERICENTER":168.0696,"MEAN_ANOMALY":192.0855,"EPHEMERIS_TYPE":0,"CLASSIFICATION_TYPE":"U","NORAD_CAT_ID":19274,"ELEMENT_SET_NO":999,"REV_AT_EPOCH":3511,"BSTAR":0.00038371192,"MEAN_MOTION_DOT":0.00011798,"MEAN_MOTION_DDOT":0}]
